{
  "type": "FeatureCollection",
  "features": [
    {
      "type": "Feature",
      "properties": {
        "norad_id": 30527,
        "name": "FENGYUN 1C DEB",
        "group": "fengyun-1c-debris",
        "lat": -16.000454039178035,
        "lon": -138.66513368520285,
        "alt_km": 836.8235164173693,
        "timestamp": "2025-12-27T03:58:44.428533+00:00",
        "meta_object_name": "FENGYUN 1C DEB",
        "meta_object_id": "1999-025AJR",
        "meta_epoch": "2025-12-25T13:54:41.627808",
        "meta_mean_motion": 13.3106084,
        "meta_eccentricity": 0.0413674,
        "meta_inclination": 100.0629,
        "meta_ra_of_asc_node": 42.6992,
        "meta_arg_of_pericenter": 196.0708,
        "meta_mean_anomaly": 323.0163,
        "meta_ephemeris_type": 0,
        "meta_classification_type": "U",
        "meta_norad_cat_id": 30527,
        "meta_element_set_no": 999,
        "meta_rev_at_epoch": 91527,
        "meta_bstar": 0.0013705,
        "meta_mean_motion_dot": 1.002e-05,
        "meta_mean_motion_ddot": 0,
        "tle_line1": "1 30527U 99025AJR 25359.57964847  .00001002  00000+0  13705-2 0  9996",
        "tle_line2": "2 30527 100.0629  42.6992 0413674 196.0708 323.0163 13.31060840915273"
      },
      "geometry": {
        "type": "Point",
        "coordinates": [
          -138.66513368520285,
          -16.000454039178035
        ]
      }
    },
    {
      "type": "Feature",
      "properties": {
        "norad_id": 30528,
        "name": "FENGYUN 1C DEB",
        "group": "fengyun-1c-debris",
        "lat": 35.5938851425196,
        "lon": 55.58900470859849,
        "alt_km": 764.7300281799089,
        "timestamp": "2025-12-27T03:58:44.428542+00:00",
        "meta_object_name": "FENGYUN 1C DEB",
        "meta_object_id": "1999-025AJS",
        "meta_epoch": "2025-12-26T14:00:28.141920",
        "meta_mean_motion": 14.1351253,
        "meta_eccentricity": 0.0144119,
        "meta_inclination": 98.2371,
        "meta_ra_of_asc_node": 229.1013,
        "meta_arg_of_pericenter": 185.7599,
        "meta_mean_anomaly": 238.5974,
        "meta_ephemeris_type": 0,
        "meta_classification_type": "U",
        "meta_norad_cat_id": 30528,
        "meta_element_set_no": 999,
        "meta_rev_at_epoch": 97333,
        "meta_bstar": 0.0003288,
        "meta_mean_motion_dot": 6.45e-06,
        "meta_mean_motion_ddot": 0,
        "tle_line1": "1 30528U 99025AJS 25360.58365905  .00000645  00000+0  32880-3 0  9998",
        "tle_line2": "2 30528  98.2371 229.1013 0144119 185.7599 238.5974 14.13512530973330"
      },
      "geometry": {
        "type": "Point",
        "coordinates": [
          55.58900470859849,
          35.5938851425196
        ]
      }
    },
    {
      "type": "Feature",
      "properties": {
        "norad_id": 30529,
        "name": "FENGYUN 1C DEB",
        "group": "fengyun-1c-debris",
        "lat": -3.0237208596332112,
        "lon": -78.15785248556064,
        "alt_km": 1165.416752539326,
        "timestamp": "2025-12-27T03:58:44.428551+00:00",
        "meta_object_name": "FENGYUN 1C DEB",
        "meta_object_id": "1999-025AJT",
        "meta_epoch": "2025-12-24T05:57:54.130752",
        "meta_mean_motion": 13.71625376,
        "meta_eccentricity": 0.02299744,
        "meta_inclination": 98.487,
        "meta_ra_of_asc_node": 278.8069,
        "meta_arg_of_pericenter": 191.2594,
        "meta_mean_anomaly": 168.336,
        "meta_ephemeris_type": 0,
        "meta_classification_type": "U",
        "meta_norad_cat_id": 30529,
        "meta_element_set_no": 999,
        "meta_rev_at_epoch": 94166,
        "meta_bstar": 0.00090368707,
        "meta_mean_motion_dot": 9.47e-06,
        "meta_mean_motion_ddot": 0,
        "tle_line1": "1 30529U 99025AJT 25358.24854318  .00000947  00000+0  90369-3 0  9991",
        "tle_line2": "2 30529  98.4870 278.8069 0229974 191.2594 168.3360 13.71625376941665"
      },
      "geometry": {
        "type": "Point",
        "coordinates": [
          -78.15785248556064,
          -3.0237208596332112
        ]
      }
    },
    {
      "type": "Feature",
      "properties": {
        "norad_id": 30530,
        "name": "FENGYUN 1C DEB",
        "group": "fengyun-1c-debris",
        "lat": 66.61874819911488,
        "lon": -120.84715948811242,
        "alt_km": 694.1094869928975,
        "timestamp": "2025-12-27T03:58:44.428561+00:00",
        "meta_object_name": "FENGYUN 1C DEB",
        "meta_object_id": "1999-025AJU",
        "meta_epoch": "2025-12-26T14:47:30.505920",
        "meta_mean_motion": 14.3680352,
        "meta_eccentricity": 0.0100444,
        "meta_inclination": 98.395,
        "meta_ra_of_asc_node": 38.645,
        "meta_arg_of_pericenter": 95.7594,
        "meta_mean_anomaly": 55.2803,
        "meta_ephemeris_type": 0,
        "meta_classification_type": "U",
        "meta_norad_cat_id": 30530,
        "meta_element_set_no": 999,
        "meta_rev_at_epoch": 98984,
        "meta_bstar": 0.00023644,
        "meta_mean_motion_dot": 6.96e-06,
        "meta_mean_motion_ddot": 0,
        "tle_line1": "1 30530U 99025AJU 25360.61632530  .00000696  00000+0  23644-3 0  9990",
        "tle_line2": "2 30530  98.3950  38.6450 0100444  95.7594  55.2803 14.36803520989848"
      },
      "geometry": {
        "type": "Point",
        "coordinates": [
          -120.84715948811242,
          66.61874819911488
        ]
      }
    },
    {
      "type": "Feature",
      "properties": {
        "norad_id": 30531,
        "name": "FENGYUN 1C DEB",
        "group": "fengyun-1c-debris",
        "lat": 29.295995726933935,
        "lon": -172.73178481376564,
        "alt_km": 697.0012890713888,
        "timestamp": "2025-12-27T03:58:44.428570+00:00",
        "meta_object_name": "FENGYUN 1C DEB",
        "meta_object_id": "1999-025AJV",
        "meta_epoch": "2025-12-26T11:25:19.405056",
        "meta_mean_motion": 14.62428214,
        "meta_eccentricity": 0.0026175,
        "meta_inclination": 102.3108,
        "meta_ra_of_asc_node": 193.2823,
        "meta_arg_of_pericenter": 168.225,
        "meta_mean_anomaly": 191.9553,
        "meta_ephemeris_type": 0,
        "meta_classification_type": "U",
        "meta_norad_cat_id": 30531,
        "meta_element_set_no": 999,
        "meta_rev_at_epoch": 97896,
        "meta_bstar": 0.0042224,
        "meta_mean_motion_dot": 0.00021466,
        "meta_mean_motion_ddot": 0,
        "tle_line1": "1 30531U 99025AJV 25360.47591904  .00021466  00000+0  42224-2 0  9996",
        "tle_line2": "2 30531 102.3108 193.2823 0026175 168.2250 191.9553 14.62428214978968"
      },
      "geometry": {
        "type": "Point",
        "coordinates": [
          -172.73178481376564,
          29.295995726933935
        ]
      }
    },
    {
      "type": "Feature",
      "properties": {
        "norad_id": 30532,
        "name": "FENGYUN 1C DEB",
        "group": "fengyun-1c-debris",
        "lat": 76.5056101125687,
        "lon": 14.908575561139557,
        "alt_km": 457.9148360819936,
        "timestamp": "2025-12-27T03:58:44.428579+00:00",
        "meta_object_name": "FENGYUN 1C DEB",
        "meta_object_id": "1999-025AJW",
        "meta_epoch": "2025-12-26T19:49:15.459168",
        "meta_mean_motion": 15.35969614,
        "meta_eccentricity": 0.0018296,
        "meta_inclination": 96.959,
        "meta_ra_of_asc_node": 45.1836,
        "meta_arg_of_pericenter": 210.263,
        "meta_mean_anomaly": 149.756,
        "meta_ephemeris_type": 0,
        "meta_classification_type": "U",
        "meta_norad_cat_id": 30532,
        "meta_element_set_no": 999,
        "meta_rev_at_epoch": 97903,
        "meta_bstar": 0.015588,
        "meta_mean_motion_dot": 0.00591334,
        "meta_mean_motion_ddot": 0,
        "tle_line1": "1 30532U 99025AJW 25360.82587337  .00591334  00000+0  15588-1 0  9999",
        "tle_line2": "2 30532  96.9590  45.1836 0018296 210.2630 149.7560 15.35969614979039"
      },
      "geometry": {
        "type": "Point",
        "coordinates": [
          14.908575561139557,
          76.5056101125687
        ]
      }
    },
    {
      "type": "Feature",
      "properties": {
        "norad_id": 30533,
        "name": "FENGYUN 1C DEB",
        "group": "fengyun-1c-debris",
        "lat": -61.14019071925198,
        "lon": 147.1626164897254,
        "alt_km": 775.3702211037798,
        "timestamp": "2025-12-27T03:58:44.428588+00:00",
        "meta_object_name": "FENGYUN 1C DEB",
        "meta_object_id": "1999-025AJX",
        "meta_epoch": "2025-12-24T20:42:58.562784",
        "meta_mean_motion": 14.54112525,
        "meta_eccentricity": 0.00810279,
        "meta_inclination": 98.8337,
        "meta_ra_of_asc_node": 128.3433,
        "meta_arg_of_pericenter": 112.7899,
        "meta_mean_anomaly": 18.0384,
        "meta_ephemeris_type": 0,
        "meta_classification_type": "U",
        "meta_norad_cat_id": 30533,
        "meta_element_set_no": 999,
        "meta_rev_at_epoch": 97997,
        "meta_bstar": 0.0030460631,
        "meta_mean_motion_dot": 0.00013416,
        "meta_mean_motion_ddot": 0,
        "tle_line1": "1 30533U 99025AJX 25358.86317781  .00013416  00000+0  30461-2 0  9993",
        "tle_line2": "2 30533  98.8337 128.3433 0081027 112.7899  18.0384 14.54112525979978"
      },
      "geometry": {
        "type": "Point",
        "coordinates": [
          147.1626164897254,
          -61.14019071925198
        ]
      }
    }
  ]
}